{
  "norad_id": 55461,
  "name": "STARLINK-5646",
  "history": [
    {
      "epoch": "2026-03-28T22:00:01.999584Z",
      "apogee_km": 493.5333638480888,
      "perigee_km": 490.7342781102052,
      "latitude_deg": 31.370478598354918,
      "longitude_deg": 104.14433169193953,
      "height_km": 493.8020845809243,
      "semi_major_axis_km": 6870.270820979146,
      "eccentricity": 0.00020371,
      "inclination_deg": 42.9995,
      "raan_deg": 219.9246,
      "arg_perigee_deg": 281.3472,
      "mean_anomaly_deg": 128.1619,
      "mean_motion_rev_day": 15.24551068
    },
    {
      "epoch": "2026-03-29T04:00:01.999584Z",
      "apogee_km": 492.7312029786535,
      "perigee_km": 489.70456521671986,
      "latitude_deg": -11.351637006825358,
      "longitude_deg": -40.428979283077496,
      "height_km": 492.74883985908923,
      "semi_major_axis_km": 6869.354884097686,
      "eccentricity": 0.0002203,
      "inclination_deg": 43.0005,
      "raan_deg": 218.5184,
      "arg_perigee_deg": 269.0186,
      "mean_anomaly_deg": 74.3626,
      "mean_motion_rev_day": 15.24855996
    }
  ]
}